NORAD_CAT_ID,OBJECT_NAME,OBJECT_TYPE,EPOCH,MEAN_MOTION,ECCENTRICITY,INCLINATION,RA_OF_ASC_NODE,ARG_OF_PERICENTER,MEAN_ANOMALY,BSTAR,MEAN_MOTION_DOT,MEAN_MOTION_DDOT,TLE_LINE0,TLE_LINE1,TLE_LINE2,SEMIMAJOR_AXIS,PERIOD,APOGEE,PERIGEE,DECAYED
53554.0,STARLINK-4506,PAYLOAD,2023-10-29 19:26:59,15.08846966,0.0001544,53.2157,333.2596,98.5458,261.5709,0.00030319,4.541e-05,0.0,0 STARLINK-4506,1 53554U 22101AD  23302.81040967  .00004541  00000-0  30319-3 0  9996,2 53554  53.2157 333.2596 0001544  98.5458 261.5709 15.08846966 66196,6917.859,95.437,540.792,538.656,0.0
53554.0,STARLINK-4506,PAYLOAD,2023-10-30 01:48:32,15.08843098,0.0001789,53.2154,332.0724,92.0654,268.0543,0.00024403,3.598e-05,0.0,0 STARLINK-4506,1 53554U 22101AD  23303.07537294  .00003598  00000-0  24403-3 0  9997,2 53554  53.2154 332.0724 0001789  92.0654 268.0543 15.08843098 66237,6917.871,95.437,540.974,538.498,0.0
53554.0,STARLINK-4506,PAYLOAD,2023-10-30 09:45:27,15.08846232,0.0001705,53.2155,330.5853,93.043,267.0757,0.00025048,3.701e-05,0.0,0 STARLINK-4506,1 53554U 22101AD  23303.40657147  .00003701  00000-0  25048-3 0  9996,2 53554  53.2155 330.5853 0001705  93.0430 267.0757 15.08846232 66289,6917.861,95.437,540.906,538.547,0.0
53554.0,STARLINK-4506,PAYLOAD,2023-10-31 08:00:52,15.08837612,0.0001691,53.2162,326.4205,94.1307,265.9879,3.5666e-05,2.8e-06,0.0,0 STARLINK-4506,1 53554U 22101AD  23304.33393757  .00000280  00000-0  35666-4 0  9990,2 53554  53.2162 326.4205 0001691  94.1307 265.9879 15.08837612 66421,6917.888,95.438,540.923,538.583,0.0
53554.0,STARLINK-4506,PAYLOAD,2023-10-31 19:08:34,15.08835209,0.0001659,53.216,324.3392,93.7631,266.3551,9.0375e-05,1.15e-05,0.0,0 STARLINK-4506,1 53554U 22101AD  23304.79762142  .00001150  00000-0  90375-4 0  9993,2 53554  53.2160 324.3392 0001659  93.7631 266.3551 15.08835209 66491,6917.895,95.438,540.908,538.612,0.0
53554.0,STARLINK-4506,PAYLOAD,2023-11-01 11:02:25,15.08848032,0.0001666,53.2153,321.365,97.8344,262.2838,0.00038803,5.894e-05,0.0,0 STARLINK-4506,1 53554U 22101AD  23305.46001855  .00005894  00000-0  38803-3 0  9991,2 53554  53.2153 321.3650 0001666  97.8344 262.2838 15.08848032 66593,6917.856,95.437,540.873,538.568,0.0
53554.0,STARLINK-4506,PAYLOAD,2023-11-02 04:31:40,15.08845606,0.0001646,53.2153,318.092,97.8254,262.2925,0.00028895,4.314e-05,0.0,0 STARLINK-4506,1 53554U 22101AD  23306.18865926  .00004314  00000-0  28895-3 0  9994,2 53554  53.2153 318.0920 0001646  97.8254 262.2925 15.08845606 66708,6917.863,95.437,540.867,538.59,0.0
53554.0,STARLINK-4506,PAYLOAD,2023-11-02 10:53:12,15.08850323,0.0001571,53.2152,316.903,96.5282,263.5889,0.00029383,4.393e-05,0.0,0 STARLINK-4506,1 53554U 22101AD  23306.45361615  .00004393  00000-0  29383-3 0  9990,2 53554  53.2152 316.9030 0001571  96.5282 263.5889 15.08850323 66749,6917.849,95.437,540.801,538.627,0.0
53554.0,STARLINK-4506,PAYLOAD,2023-11-03 04:22:27,15.08839367,0.0001729,53.2162,313.6298,94.7796,265.3394,2.5279e-06,-2.48e-06,0.0,0 STARLINK-4506,1 53554U 22101AD  23307.18226008 -.00000248  00000-0  25279-5 0  9995,2 53554  53.2162 313.6298 0001729  94.7796 265.3394 15.08839367 66853,6917.882,95.438,540.943,538.551,0.0
53554.0,STARLINK-4506,PAYLOAD,2023-11-03 07:33:13,15.08843108,0.0001571,53.2157,313.0371,87.0257,273.0915,6.9839e-05,8.24e-06,0.0,0 STARLINK-4506,1 53554U 22101AD  23307.31473910  .00000824  00000-0  69839-4 0  9994,2 53554  53.2157 313.0371 0001571  87.0257 273.0915 15.08843108 66870,6917.871,95.437,540.823,538.649,0.0
53554.0,STARLINK-4506,PAYLOAD,2023-11-03 17:05:32,15.08841196,0.0001525,53.2159,311.255,87.8277,272.289,-3.6397e-06,-3.46e-06,0.0,0 STARLINK-4506,1 53554U 22101AD  23307.71217971 -.00000346  00000-0 -36397-5 0  9996,2 53554  53.2159 311.2550 0001525  87.8277 272.2890 15.08841196 66935,6917.877,95.437,540.797,538.687,0.0
53554.0,STARLINK-4506,PAYLOAD,2023-11-04 08:59:23,15.08846199,0.0001564,53.2161,308.283,95.9863,264.1308,0.00015437,2.17e-05,0.0,0 STARLINK-4506,1 53554U 22101AD  23308.37457915  .00002170  00000-0  15437-3 0  9998,2 53554  53.2161 308.2830 0001564  95.9863 264.1308 15.08846199 67033,6917.861,95.437,540.808,538.644,0.0
53554.0,STARLINK-4506,PAYLOAD,2023-11-04 16:56:19,15.08839495,0.0001547,53.2157,306.7972,105.1057,255.0106,0.00018333,2.631e-05,0.0,0 STARLINK-4506,1 53554U 22101AD  23308.70578281  .00002631  00000-0  18333-3 0  9995,2 53554  53.2157 306.7972 0001547 105.1057 255.0106 15.08839495 67089,6917.882,95.438,540.817,538.677,0.0
53554.0,STARLINK-4506,PAYLOAD,2023-11-05 08:50:10,15.08859393,0.0001714,53.2158,303.821,91.0767,269.0421,0.00048292,7.41e-05,0.0,0 STARLINK-4506,1 53554U 22101AD  23309.36817598  .00007410  00000-0  48292-3 0  9992,2 53554  53.2158 303.8210 0001714  91.0767 269.0421 15.08859393 67185,6917.821,95.436,540.872,538.5,0.0
53554.0,STARLINK-4506,PAYLOAD,2023-11-05 16:47:06,15.0885303,0.0001536,53.2147,302.3325,84.4925,275.6242,0.00032443,4.881e-05,0.0,0 STARLINK-4506,1 53554U 22101AD  23309.69937565  .00004881  00000-0  32443-3 0  9995,2 53554  53.2147 302.3325 0001536  84.4925 275.6242 15.08853030 67230,6917.841,95.437,540.768,538.643,0.0
53554.0,STARLINK-4506,PAYLOAD,2023-11-06 07:05:33,15.08871564,0.0001464,53.2156,299.6575,104.9171,255.1983,0.00063612,9.859e-05,0.0,0 STARLINK-4506,1 53554U 22101AD  23310.29552541  .00009859  00000-0  63612-3 0  9992,2 53554  53.2156 299.6575 0001464 104.9171 255.1983 15.08871564 67323,6917.784,95.436,540.662,538.636,0.0
53554.0,STARLINK-4506,PAYLOAD,2023-11-07 03:45:37,15.08779073,0.00011,53.2147,295.7958,83.9195,276.1923,-0.0011271,-0.00018151,0.0,0 STARLINK-4506,1 53554U 22101AD  23311.15668461 -.00018151  00000-0 -11271-2 0  9997,2 53554  53.2147 295.7958 0001100  83.9195 276.1923 15.08779073 67457,6918.067,95.441,540.693,539.171,0.0
53554.0,STARLINK-4506,PAYLOAD,2023-11-07 08:31:46,15.08822867,0.0001158,53.2149,294.9008,85.2319,274.8805,0.00039766,6.044e-05,0.0,0 STARLINK-4506,1 53554U 22101AD  23311.35539587  .00006044  00000-0  39766-3 0  9991,2 53554  53.2149 294.9008 0001158  85.2319 274.8805 15.08822867 67489,6917.933,95.439,540.599,538.997,0.0
53554.0,STARLINK-4506,PAYLOAD,2023-11-08 03:36:23,15.0884817,8.48e-05,53.2156,291.3343,109.7736,250.3348,0.0011403,0.00017911,0.0,0 STARLINK-4506,1 53554U 22101AD  23312.15027621  .00017911  00000-0  11403-2 0  9993,2 53554  53.2156 291.3343 0000848 109.7736 250.3348 15.08848170 67600,6917.855,95.437,540.307,539.134,0.0
53554.0,STARLINK-4506,PAYLOAD,2023-11-08 08:22:32,15.0886986,0.0001345,53.2163,290.4385,97.8262,262.2883,0.0015719,0.00024838,0.0,0 STARLINK-4506,1 53554U 22101AD  23312.34899268  .00024838  00000-0  15719-2 0  9998,2 53554  53.2163 290.4385 0001345  97.8262 262.2883 15.08869860 67636,6917.789,95.436,540.585,538.724,0.0
53554.0,STARLINK-4506,PAYLOAD,2023-11-08 16:19:28,15.08851047,0.0001194,53.2166,288.9527,96.9158,263.197,0.00065248,0.00010115,0.0,0 STARLINK-4506,1 53554U 22101AD  23312.68019266  .00010115  00000-0  65248-3 0  9993,2 53554  53.2166 288.9527 0001194  96.9158 263.1970 15.08851047 67685,6917.847,95.437,540.538,538.886,0.0
53554.0,STARLINK-4506,PAYLOAD,2023-11-09 08:13:19,15.08859659,0.0001341,53.2164,285.978,101.0841,259.0302,0.00027141,4.036e-05,0.0,0 STARLINK-4506,1 53554U 22101AD  23313.34258425  .00004036  00000-0  27141-3 0  9994,2 53554  53.2164 285.9780 0001341 101.0841 259.0302 15.08859659 67783,6917.82,95.436,540.613,538.758,0.0
53554.0,STARLINK-4506,PAYLOAD,2023-11-10 04:53:19,15.08880007,0.0001669,53.2163,282.1116,104.8536,255.2641,0.00073751,0.00011482,0.0,0 STARLINK-4506,1 53554U 22101AD  23314.20369356  .00011482  00000-0  73751-3 0  9997,2 53554  53.2163 282.1116 0001669 104.8536 255.2641 15.08880007 67919,6917.758,95.435,540.778,538.469,0.0
53554.0,STARLINK-4506,PAYLOAD,2023-11-10 14:25:38,15.08845932,0.000144,53.2159,280.3274,96.3457,263.7699,0.00016542,2.346e-05,0.0,0 STARLINK-4506,1 53554U 22101AD  23314.60114525  .00002346  00000-0  16542-3 0  9991,2 53554  53.2159 280.3274 0001440  96.3457 263.7699 15.08845932 67974,6917.862,95.437,540.723,538.731,0.0
53554.0,STARLINK-4506,PAYLOAD,2023-11-11 03:08:44,15.08836275,0.0001412,53.2161,277.9481,92.224,267.8914,3.7552e-05,3.1e-06,0.0,0 STARLINK-4506,1 53554U 22101AD  23315.13106942  .00000310  00000-0  37552-4 0  9998,2 53554  53.2161 277.9481 0001412  92.2240 267.8914 15.08836275 68058,6917.892,95.438,540.734,538.78,0.0
53554.0,STARLINK-4506,PAYLOAD,2023-11-11 04:44:07,15.08839975,0.0001509,53.2172,277.6552,107.4588,252.6569,9.0978e-05,1.16e-05,0.0,0 STARLINK-4506,1 53554U 22101AD  23315.19730873  .00001160  00000-0  90978-4 0  9995,2 53554  53.2172 277.6552 0001509 107.4588 252.6569 15.08839975 68066,6917.88,95.438,540.789,538.702,0.0
53554.0,STARLINK-4506,PAYLOAD,2023-11-12 04:34:54,15.08841638,0.0001519,53.2163,273.1935,106.9788,253.137,9.5479e-05,1.232e-05,0.0,0 STARLINK-4506,1 53554U 22101AD  23316.19090877  .00001232  00000-0  95479-4 0  9990,2 53554  53.2163 273.1935 0001519 106.9788 253.1370 15.08841638 68211,6917.875,95.437,540.791,538.69,0.0
53554.0,STARLINK-4506,PAYLOAD,2023-11-12 07:45:40,15.08846755,0.0001505,53.2159,272.5963,101.2062,258.9099,0.00020293,2.944e-05,0.0,0 STARLINK-4506,1 53554U 22101AD  23316.32338701  .00002944  00000-0  20293-3 0  9998,2 53554  53.2159 272.5963 0001505 101.2062 258.9099 15.08846755 68236,6917.86,95.437,540.766,538.684,0.0
53554.0,STARLINK-4506,PAYLOAD,2023-11-13 06:01:04,15.08844598,0.0001653,53.2169,268.4313,90.9091,269.209,0.00021653,3.16e-05,0.0,0 STARLINK-4506,1 53554U 22101AD  23317.25075084  .00003160  00000-0  21653-3 0  9995,2 53554  53.2169 268.4313 0001653  90.9091 269.2090 15.08844598 68374,6917.866,95.437,540.875,538.588,0.0
53554.0,STARLINK-4506,PAYLOAD,2023-11-13 20:19:33,15.08837604,0.0001663,53.2158,265.7557,95.2176,264.9006,2.3409e-05,8.4e-07,0.0,0 STARLINK-4506,1 53554U 22101AD  23317.84691460  .00000084  00000-0  23409-4 0  9996,2 53554  53.2158 265.7557 0001663  95.2176 264.9006 15.08837604 68464,6917.888,95.438,540.903,538.602,0.0
